CCSDS_OMM_VERS = 2.0
CREATION_DATE  = 
ORIGINATOR     = 

OBJECT_NAME    = STARLINK-35848
OBJECT_ID      = 2025-254B
CENTER_NAME    = EARTH
REF_FRAME      = TEME
TIME_SYSTEM    = UTC
MEAN_ELEMENT_THEORY = SGP/SGP4

EPOCH          = 2025-12-01T06:15:01.940832
MEAN_MOTION    = 15.73263501
ECCENTRICITY   = .00009044
INCLINATION    = 53.1588
RA_OF_ASC_NODE = 331.9437
ARG_OF_PERICENTER = 24.8764
MEAN_ANOMALY   = 335.2298

EPHEMERIS_TYPE = 0
CLASSIFICATION_TYPE = U
NORAD_CAT_ID   = 66349
ELEMENT_SET_NO = 999
REV_AT_EPOCH   = 387
BSTAR          = -.53398042E-2
MEAN_MOTION_DOT = -.693088E-2
MEAN_MOTION_DDOT = 0

CCSDS_OMM_VERS = 2.0
CREATION_DATE  = 
ORIGINATOR     = 

OBJECT_NAME    = STARLINK-35829
OBJECT_ID      = 2025-254C
CENTER_NAME    = EARTH
REF_FRAME      = TEME
TIME_SYSTEM    = UTC
MEAN_ELEMENT_THEORY = SGP/SGP4

EPOCH          = 2025-12-01T04:43:02.785728
MEAN_MOTION    = 15.73554850
ECCENTRICITY   = .00002123
INCLINATION    = 53.1585
RA_OF_ASC_NODE = 332.2557
ARG_OF_PERICENTER = 27.9764
MEAN_ANOMALY   = 332.1267

EPHEMERIS_TYPE = 0
CLASSIFICATION_TYPE = U
NORAD_CAT_ID   = 66350
ELEMENT_SET_NO = 999
REV_AT_EPOCH   = 386
BSTAR          = -.39975441E-2
MEAN_MOTION_DOT = -.535372E-2
MEAN_MOTION_DDOT = 0

CCSDS_OMM_VERS = 2.0
CREATION_DATE  = 
ORIGINATOR     = 

OBJECT_NAME    = STARLINK-35828
OBJECT_ID      = 2025-254D
CENTER_NAME    = EARTH
REF_FRAME      = TEME
TIME_SYSTEM    = UTC
MEAN_ELEMENT_THEORY = SGP/SGP4

EPOCH          = 2025-12-01T04:42:31.736160
MEAN_MOTION    = 15.73758085
ECCENTRICITY   = .00012999
INCLINATION    = 53.1585
RA_OF_ASC_NODE = 332.2526
ARG_OF_PERICENTER = 122.0222
MEAN_ANOMALY   = 238.0924

EPHEMERIS_TYPE = 0
CLASSIFICATION_TYPE = U
NORAD_CAT_ID   = 66351
ELEMENT_SET_NO = 999
REV_AT_EPOCH   = 386
BSTAR          = -.20547779E-2
MEAN_MOTION_DOT = -.286205E-2
MEAN_MOTION_DDOT = 0

CCSDS_OMM_VERS = 2.0
CREATION_DATE  = 
ORIGINATOR     = 

OBJECT_NAME    = STARLINK-35850
OBJECT_ID      = 2025-254E
CENTER_NAME    = EARTH
REF_FRAME      = TEME
TIME_SYSTEM    = UTC
MEAN_ELEMENT_THEORY = SGP/SGP4

EPOCH          = 2025-12-01T04:42:04.427712
MEAN_MOTION    = 15.73550964
ECCENTRICITY   = .00004942
INCLINATION    = 53.1587
RA_OF_ASC_NODE = 332.2506
ARG_OF_PERICENTER = 122.8516
MEAN_ANOMALY   = 237.2551

EPHEMERIS_TYPE = 0
CLASSIFICATION_TYPE = U
NORAD_CAT_ID   = 66352
ELEMENT_SET_NO = 999
REV_AT_EPOCH   = 386
BSTAR          = -.39406128E-2
MEAN_MOTION_DOT = -.528147E-2
MEAN_MOTION_DDOT = 0

CCSDS_OMM_VERS = 2.0
CREATION_DATE  = 
ORIGINATOR     = 

OBJECT_NAME    = STARLINK-35869
OBJECT_ID      = 2025-254F
CENTER_NAME    = EARTH
REF_FRAME      = TEME
TIME_SYSTEM    = UTC
MEAN_ELEMENT_THEORY = SGP/SGP4

EPOCH          = 2025-12-01T03:10:06.717216
MEAN_MOTION    = 15.73775690
ECCENTRICITY   = .00008327
INCLINATION    = 53.1585
RA_OF_ASC_NODE = 332.5630
ARG_OF_PERICENTER = 125.1644
MEAN_ANOMALY   = 234.9454

EPHEMERIS_TYPE = 0
CLASSIFICATION_TYPE = U
NORAD_CAT_ID   = 66353
ELEMENT_SET_NO = 999
REV_AT_EPOCH   = 385
BSTAR          = -.27482208E-2
MEAN_MOTION_DOT = -.378715E-2
MEAN_MOTION_DDOT = 0

CCSDS_OMM_VERS = 2.0
CREATION_DATE  = 
ORIGINATOR     = 

OBJECT_NAME    = STARLINK-35895
OBJECT_ID      = 2025-254G
CENTER_NAME    = EARTH
REF_FRAME      = TEME
TIME_SYSTEM    = UTC
MEAN_ELEMENT_THEORY = SGP/SGP4

EPOCH          = 2025-12-01T06:00:02.000160
MEAN_MOTION    = 15.60589526
ECCENTRICITY   = .00013135
INCLINATION    = 53.1593
RA_OF_ASC_NODE = 332.0990
ARG_OF_PERICENTER = 93.0445
MEAN_ANOMALY   = 156.2799

EPHEMERIS_TYPE = 0
CLASSIFICATION_TYPE = U
NORAD_CAT_ID   = 66354
ELEMENT_SET_NO = 999
REV_AT_EPOCH   = 507
BSTAR          = -.34105238E-1
MEAN_MOTION_DOT = -.2499687E-1
MEAN_MOTION_DDOT = 0

CCSDS_OMM_VERS = 2.0
CREATION_DATE  = 
ORIGINATOR     = 

OBJECT_NAME    = STARLINK-35861
OBJECT_ID      = 2025-254H
CENTER_NAME    = EARTH
REF_FRAME      = TEME
TIME_SYSTEM    = UTC
MEAN_ELEMENT_THEORY = SGP/SGP4

EPOCH          = 2025-12-01T06:12:06.147936
MEAN_MOTION    = 15.73291220
ECCENTRICITY   = .00000608
INCLINATION    = 53.1586
RA_OF_ASC_NODE = 331.9291
ARG_OF_PERICENTER = 140.9813
MEAN_ANOMALY   = 219.1211

EPHEMERIS_TYPE = 0
CLASSIFICATION_TYPE = U
NORAD_CAT_ID   = 66355
ELEMENT_SET_NO = 999
REV_AT_EPOCH   = 387
BSTAR          = -.53335125E-2
MEAN_MOTION_DOT = -.692953E-2
MEAN_MOTION_DDOT = 0

CCSDS_OMM_VERS = 2.0
CREATION_DATE  = 
ORIGINATOR     = 

OBJECT_NAME    = STARLINK-35851
OBJECT_ID      = 2025-254J
CENTER_NAME    = EARTH
REF_FRAME      = TEME
TIME_SYSTEM    = UTC
MEAN_ELEMENT_THEORY = SGP/SGP4

EPOCH          = 2025-12-01T06:11:36.700224
MEAN_MOTION    = 15.73329689
ECCENTRICITY   = .00006199
INCLINATION    = 53.1585
RA_OF_ASC_NODE = 331.9261
ARG_OF_PERICENTER = 172.9608
MEAN_ANOMALY   = 187.1420

EPHEMERIS_TYPE = 0
CLASSIFICATION_TYPE = U
NORAD_CAT_ID   = 66356
ELEMENT_SET_NO = 999
REV_AT_EPOCH   = 387
BSTAR          = -.48964818E-2
MEAN_MOTION_DOT = -.641287E-2
MEAN_MOTION_DDOT = 0

CCSDS_OMM_VERS = 2.0
CREATION_DATE  = 
ORIGINATOR     = 

OBJECT_NAME    = STARLINK-35817
OBJECT_ID      = 2025-254K
CENTER_NAME    = EARTH
REF_FRAME      = TEME
TIME_SYSTEM    = UTC
MEAN_ELEMENT_THEORY = SGP/SGP4

EPOCH          = 2025-12-01T06:11:07.845216
MEAN_MOTION    = 15.73276530
ECCENTRICITY   = .00001408
INCLINATION    = 53.1585
RA_OF_ASC_NODE = 331.9241
ARG_OF_PERICENTER = 2.2084
MEAN_ANOMALY   = 357.8936

EPHEMERIS_TYPE = 0
CLASSIFICATION_TYPE = U
NORAD_CAT_ID   = 66357
ELEMENT_SET_NO = 999
REV_AT_EPOCH   = 387
BSTAR          = -.55195185E-2
MEAN_MOTION_DOT = -.714796E-2
MEAN_MOTION_DDOT = 0

CCSDS_OMM_VERS = 2.0
CREATION_DATE  = 
ORIGINATOR     = 

OBJECT_NAME    = STARLINK-35807
OBJECT_ID      = 2025-254L
CENTER_NAME    = EARTH
REF_FRAME      = TEME
TIME_SYSTEM    = UTC
MEAN_ELEMENT_THEORY = SGP/SGP4

EPOCH          = 2025-12-01T06:10:38.578944
MEAN_MOTION    = 15.73292468
ECCENTRICITY   = .00004998
INCLINATION    = 53.1585
RA_OF_ASC_NODE = 331.9212
ARG_OF_PERICENTER = 356.2436
MEAN_ANOMALY   = 3.8579

EPHEMERIS_TYPE = 0
CLASSIFICATION_TYPE = U
NORAD_CAT_ID   = 66358
ELEMENT_SET_NO = 999
REV_AT_EPOCH   = 387
BSTAR          = -.51824422E-2
MEAN_MOTION_DOT = -.674901E-2
MEAN_MOTION_DDOT = 0

CCSDS_OMM_VERS = 2.0
CREATION_DATE  = 
ORIGINATOR     = 

OBJECT_NAME    = STARLINK-35805
OBJECT_ID      = 2025-254M
CENTER_NAME    = EARTH
REF_FRAME      = TEME
TIME_SYSTEM    = UTC
MEAN_ELEMENT_THEORY = SGP/SGP4

EPOCH          = 2025-12-01T06:10:09.348960
MEAN_MOTION    = 15.73293274
ECCENTRICITY   = .00002599
INCLINATION    = 53.1584
RA_OF_ASC_NODE = 331.9196
ARG_OF_PERICENTER = 138.9425
MEAN_ANOMALY   = 221.1614

EPHEMERIS_TYPE = 0
CLASSIFICATION_TYPE = U
NORAD_CAT_ID   = 66359
ELEMENT_SET_NO = 999
REV_AT_EPOCH   = 501
BSTAR          = -.51823657E-2
MEAN_MOTION_DOT = -.674875E-2
MEAN_MOTION_DDOT = 0

CCSDS_OMM_VERS = 2.0
CREATION_DATE  = 
ORIGINATOR     = 

OBJECT_NAME    = STARLINK-35823
OBJECT_ID      = 2025-254N
CENTER_NAME    = EARTH
REF_FRAME      = TEME
TIME_SYSTEM    = UTC
MEAN_ELEMENT_THEORY = SGP/SGP4

EPOCH          = 2025-12-01T06:09:09.974880
MEAN_MOTION    = 15.73370533
ECCENTRICITY   = .00015797
INCLINATION    = 53.1582
RA_OF_ASC_NODE = 331.9139
ARG_OF_PERICENTER = 204.5375
MEAN_ANOMALY   = 155.5569

EPHEMERIS_TYPE = 0
CLASSIFICATION_TYPE = U
NORAD_CAT_ID   = 66360
ELEMENT_SET_NO = 999
REV_AT_EPOCH   = 387
BSTAR          = -.45902914E-2
MEAN_MOTION_DOT = -.605031E-2
MEAN_MOTION_DDOT = 0

