STARLINK-35848          
1 66349U 25254B   25335.26043913 -.00693088  00000+0 -53398-2 0  9997
2 66349  53.1588 331.9437 0000904  24.8764 335.2298 15.73263501  3877
STARLINK-35829          
1 66350U 25254C   25335.19656002 -.00535372  00000+0 -39975-2 0  9996
2 66350  53.1585 332.2557 0000212  27.9764 332.1267 15.73554850  3860
STARLINK-35828          
1 66351U 25254D   25335.19620065 -.00286205  00000+0 -20548-2 0  9991
2 66351  53.1585 332.2526 0001299 122.0222 238.0924 15.73758085  3869
STARLINK-35850          
1 66352U 25254E   25335.19588458 -.00528147  00000+0 -39406-2 0  9998
2 66352  53.1587 332.2506 0000494 122.8516 237.2551 15.73550964  3863
STARLINK-35869          
1 66353U 25254F   25335.13202219 -.00378715  00000+0 -27482-2 0  9996
2 66353  53.1585 332.5630 0000832 125.1644 234.9454 15.73775690  3857
STARLINK-35895          
1 66354U 25254G   25335.25002315 -.02499687  00000+0 -34105-1 0  9998
2 66354  53.1593 332.0990 0001313  93.0445 156.2799 15.60589526  5079
STARLINK-35861          
1 66355U 25254H   25335.25840449 -.00692953  00000+0 -53335-2 0  9993
2 66355  53.1586 331.9291 0000060 140.9813 219.1211 15.73291220  3872
STARLINK-35851          
1 66356U 25254J   25335.25806366 -.00641287  00000+0 -48965-2 0  9991
2 66356  53.1585 331.9261 0000619 172.9608 187.1420 15.73329689  3873
STARLINK-35817          
1 66357U 25254K   25335.25772969 -.00714796  00000+0 -55195-2 0  9992
2 66357  53.1585 331.9241 0000140   2.2084 357.8936 15.73276530  3878
STARLINK-35807          
1 66358U 25254L   25335.25739096 -.00674901  00000+0 -51824-2 0  9995
2 66358  53.1585 331.9212 0000499 356.2436   3.8579 15.73292468  3876
STARLINK-35805          
1 66359U 25254M   25335.25705265 -.00674875  00000+0 -51824-2 0  9997
2 66359  53.1584 331.9196 0000259 138.9425 221.1614 15.73293274  5013
STARLINK-35823          
1 66360U 25254N   25335.25636545 -.00605031  00000+0 -45903-2 0  9992
2 66360  53.1582 331.9139 0001579 204.5375 155.5569 15.73370533  3875
